{
  "type": "FeatureCollection",
  "features": [
    {
      "type": "Feature",
      "properties": {
        "norad_id": 34614,
        "name": "COSMOS 2251 DEB",
        "group": "cosmos-2251-debris",
        "lat": -51.75971873564642,
        "lon": -33.09627958355465,
        "alt_km": 726.7144758569339,
        "timestamp": "2025-12-10T04:57:30.016644+00:00",
        "meta_object_name": "COSMOS 2251 DEB",
        "meta_object_id": "1993-036WK",
        "meta_epoch": "2025-12-09T19:18:03.623904",
        "meta_mean_motion": 14.17368164,
        "meta_eccentricity": 0.0197686,
        "meta_inclination": 73.8718,
        "meta_ra_of_asc_node": 349.1689,
        "meta_arg_of_pericenter": 343.5765,
        "meta_mean_anomaly": 70.6,
        "meta_ephemeris_type": 0,
        "meta_classification_type": "U",
        "meta_norad_cat_id": 34614,
        "meta_element_set_no": 999,
        "meta_rev_at_epoch": 84725,
        "meta_bstar": 0.0091025,
        "meta_mean_motion_dot": 0.00022363,
        "meta_mean_motion_ddot": 0,
        "tle_line1": "1 34614U 93036WK  25343.80420861  .00022363  00000+0  91025-2 0  9999",
        "tle_line2": "2 34614  73.8718 349.1689 0197686 343.5765  70.6000 14.17368164847254"
      },
      "geometry": {
        "type": "Point",
        "coordinates": [
          -33.09627958355465,
          -51.75971873564642
        ]
      }
    },
    {
      "type": "Feature",
      "properties": {
        "norad_id": 34615,
        "name": "COSMOS 2251 DEB",
        "group": "cosmos-2251-debris",
        "lat": 65.360833630787,
        "lon": -23.08734449653318,
        "alt_km": 1262.3573440591026,
        "timestamp": "2025-12-10T04:57:30.016654+00:00",
        "meta_object_name": "COSMOS 2251 DEB",
        "meta_object_id": "1993-036WL",
        "meta_epoch": "2025-12-08T20:46:10.769088",
        "meta_mean_motion": 13.52200861,
        "meta_eccentricity": 0.04016024,
        "meta_inclination": 74.005,
        "meta_ra_of_asc_node": 300.3553,
        "meta_arg_of_pericenter": 208.401,
        "meta_mean_anomaly": 179.5639,
        "meta_ephemeris_type": 0,
        "meta_classification_type": "U",
        "meta_norad_cat_id": 34615,
        "meta_element_set_no": 999,
        "meta_rev_at_epoch": 82763,
        "meta_bstar": 0.00025814376,
        "meta_mean_motion_dot": 2.6e-06,
        "meta_mean_motion_ddot": 0,
        "tle_line1": "1 34615U 93036WL  25342.86540242  .00000260  00000+0  25814-3 0  9997",
        "tle_line2": "2 34615  74.0050 300.3553 0401602 208.4010 179.5639 13.52200861827638"
      },
      "geometry": {
        "type": "Point",
        "coordinates": [
          -23.08734449653318,
          65.360833630787
        ]
      }
    },
    {
      "type": "Feature",
      "properties": {
        "norad_id": 34619,
        "name": "COSMOS 2251 DEB",
        "group": "cosmos-2251-debris",
        "lat": 37.328579340387456,
        "lon": -142.59017372289122,
        "alt_km": 684.9860928101953,
        "timestamp": "2025-12-10T04:57:30.016664+00:00",
        "meta_object_name": "COSMOS 2251 DEB",
        "meta_object_id": "1993-036WQ",
        "meta_epoch": "2025-12-09T00:54:46.223136",
        "meta_mean_motion": 14.64630869,
        "meta_eccentricity": 0.0094659,
        "meta_inclination": 74.0441,
        "meta_ra_of_asc_node": 207.0525,
        "meta_arg_of_pericenter": 302.7837,
        "meta_mean_anomaly": 56.4237,
        "meta_ephemeris_type": 0,
        "meta_classification_type": "U",
        "meta_norad_cat_id": 34619,
        "meta_element_set_no": 999,
        "meta_rev_at_epoch": 89244,
        "meta_bstar": 0.0002943269,
        "meta_mean_motion_dot": 1.636e-05,
        "meta_mean_motion_ddot": 0,
        "tle_line1": "1 34619U 93036WQ  25343.03803499  .00001636  00000+0  29433-3 0  9996",
        "tle_line2": "2 34619  74.0441 207.0525 0094659 302.7837  56.4237 14.64630869892440"
      },
      "geometry": {
        "type": "Point",
        "coordinates": [
          -142.59017372289122,
          37.328579340387456
        ]
      }
    },
    {
      "type": "Feature",
      "properties": {
        "norad_id": 34620,
        "name": "COSMOS 2251 DEB",
        "group": "cosmos-2251-debris",
        "lat": 54.761952464776975,
        "lon": -111.8412246831448,
        "alt_km": 776.2627148517522,
        "timestamp": "2025-12-10T04:57:30.016674+00:00",
        "meta_object_name": "COSMOS 2251 DEB",
        "meta_object_id": "1993-036WR",
        "meta_epoch": "2025-12-09T02:10:36.552576",
        "meta_mean_motion": 14.49004692,
        "meta_eccentricity": 0.00811362,
        "meta_inclination": 74.0507,
        "meta_ra_of_asc_node": 226.3683,
        "meta_arg_of_pericenter": 263.6404,
        "meta_mean_anomaly": 95.5512,
        "meta_ephemeris_type": 0,
        "meta_classification_type": "U",
        "meta_norad_cat_id": 34620,
        "meta_element_set_no": 999,
        "meta_rev_at_epoch": 86774,
        "meta_bstar": 0.00260478,
        "meta_mean_motion_dot": 0.00010287,
        "meta_mean_motion_ddot": 0,
        "tle_line1": "1 34620U 93036WR  25343.09070084  .00010287  00000+0  26048-2 0  9990",
        "tle_line2": "2 34620  74.0507 226.3683 0081136 263.6404  95.5512 14.49004692867742"
      },
      "geometry": {
        "type": "Point",
        "coordinates": [
          -111.8412246831448,
          54.761952464776975
        ]
      }
    },
    {
      "type": "Feature",
      "properties": {
        "norad_id": 34622,
        "name": "COSMOS 2251 DEB",
        "group": "cosmos-2251-debris",
        "lat": -56.13999772180551,
        "lon": -73.68327144419293,
        "alt_km": 830.0975186393825,
        "timestamp": "2025-12-10T04:57:30.016684+00:00",
        "meta_object_name": "COSMOS 2251 DEB",
        "meta_object_id": "1993-036WT",
        "meta_epoch": "2025-12-08T16:55:13.351296",
        "meta_mean_motion": 14.22019914,
        "meta_eccentricity": 0.01041794,
        "meta_inclination": 74.043,
        "meta_ra_of_asc_node": 314.2506,
        "meta_arg_of_pericenter": 37.7275,
        "meta_mean_anomaly": 139.8016,
        "meta_ephemeris_type": 0,
        "meta_classification_type": "U",
        "meta_norad_cat_id": 34622,
        "meta_element_set_no": 999,
        "meta_rev_at_epoch": 86402,
        "meta_bstar": 0.0018808383,
        "meta_mean_motion_dot": 4.371e-05,
        "meta_mean_motion_ddot": 0,
        "tle_line1": "1 34622U 93036WT  25342.70501564  .00004371  00000+0  18808-2 0  9993",
        "tle_line2": "2 34622  74.0430 314.2506 0104179  37.7275 139.8016 14.22019914864022"
      },
      "geometry": {
        "type": "Point",
        "coordinates": [
          -73.68327144419293,
          -56.13999772180551
        ]
      }
    },
    {
      "type": "Feature",
      "properties": {
        "norad_id": 34626,
        "name": "COSMOS 2251 DEB",
        "group": "cosmos-2251-debris",
        "lat": 27.95592949921742,
        "lon": -22.449500613427972,
        "alt_km": 636.3792686948764,
        "timestamp": "2025-12-10T04:57:30.016694+00:00",
        "meta_object_name": "COSMOS 2251 DEB",
        "meta_object_id": "1993-036WX",
        "meta_epoch": "2025-12-09T09:47:38.020416",
        "meta_mean_motion": 14.72130605,
        "meta_eccentricity": 0.00263963,
        "meta_inclination": 74.0486,
        "meta_ra_of_asc_node": 330.371,
        "meta_arg_of_pericenter": 59.6475,
        "meta_mean_anomaly": 59.6318,
        "meta_ephemeris_type": 0,
        "meta_classification_type": "U",
        "meta_norad_cat_id": 34626,
        "meta_element_set_no": 999,
        "meta_rev_at_epoch": 89095,
        "meta_bstar": 0.0014675793,
        "meta_mean_motion_dot": 9.272e-05,
        "meta_mean_motion_ddot": 0,
        "tle_line1": "1 34626U 93036WX  25343.40807894  .00009272  00000+0  14676-2 0  9994",
        "tle_line2": "2 34626  74.0486 330.3710 0026396  59.6475  59.6318 14.72130605890953"
      },
      "geometry": {
        "type": "Point",
        "coordinates": [
          -22.449500613427972,
          27.95592949921742
        ]
      }
    },
    {
      "type": "Feature",
      "properties": {
        "norad_id": 34634,
        "name": "COSMOS 2251 DEB",
        "group": "cosmos-2251-debris",
        "lat": -13.48643554123797,
        "lon": 35.836646688569594,
        "alt_km": 741.3098927191495,
        "timestamp": "2025-12-10T04:57:30.016704+00:00",
        "meta_object_name": "COSMOS 2251 DEB",
        "meta_object_id": "1993-036XF",
        "meta_epoch": "2025-12-09T14:52:21.177984",
        "meta_mean_motion": 14.55644976,
        "meta_eccentricity": 0.0044329,
        "meta_inclination": 74.0525,
        "meta_ra_of_asc_node": 40.8795,
        "meta_arg_of_pericenter": 149.1855,
        "meta_mean_anomaly": 2.7227,
        "meta_ephemeris_type": 0,
        "meta_classification_type": "U",
        "meta_norad_cat_id": 34634,
        "meta_element_set_no": 999,
        "meta_rev_at_epoch": 88736,
        "meta_bstar": 0.0005767,
        "meta_mean_motion_dot": 2.523e-05,
        "meta_mean_motion_ddot": 0,
        "tle_line1": "1 34634U 93036XF  25343.61968956  .00002523  00000+0  57670-3 0  9997",
        "tle_line2": "2 34634  74.0525  40.8795 0044329 149.1855   2.7227 14.55644976887366"
      },
      "geometry": {
        "type": "Point",
        "coordinates": [
          35.836646688569594,
          -13.48643554123797
        ]
      }
    }
  ]
}